[{"OBJECT_NAME":"STARLINK-31609","OBJECT_ID":"2024-050R","EPOCH":"2025-09-25T03:56:08.615040","MEAN_MOTION":15.30175589,"ECCENTRICITY":0.00014123,"INCLINATION":53.1608,"RA_OF_ASC_NODE":229.997,"ARG_OF_PERICENTER":99.9432,"MEAN_ANOMALY":260.1728,"EPHEMERIS_TYPE":0,"CLASSIFICATION_TYPE":"U","NORAD_CAT_ID":59269,"ELEMENT_SET_NO":999,"REV_AT_EPOCH":8520,"BSTAR":-2.2320029e-5,"MEAN_MOTION_DOT":-1.02e-5,"MEAN_MOTION_DDOT":0},{"OBJECT_NAME":"STARLINK-31616","OBJECT_ID":"2024-050S","EPOCH":"2025-09-25T07:13:22.587168","MEAN_MOTION":15.30168179,"ECCENTRICITY":0.0001431,"INCLINATION":53.1603,"RA_OF_ASC_NODE":229.4271,"ARG_OF_PERICENTER":83.5583,"MEAN_ANOMALY":276.5581,"EPHEMERIS_TYPE":0,"CLASSIFICATION_TYPE":"U","NORAD_CAT_ID":59270,"ELEMENT_SET_NO":999,"REV_AT_EPOCH":8522,"BSTAR":-0.00011418795,"MEAN_MOTION_DOT":-3.736e-5,"MEAN_MOTION_DDOT":0},{"OBJECT_NAME":"STARLINK-31630","OBJECT_ID":"2024-050T","EPOCH":"2025-09-25T05:50:38.926176","MEAN_MOTION":15.30194161,"ECCENTRICITY":0.00013142,"INCLINATION":53.1601,"RA_OF_ASC_NODE":216.9846,"ARG_OF_PERICENTER":96.9585,"MEAN_ANOMALY":263.1565,"EPHEMERIS_TYPE":0,"CLASSIFICATION_TYPE":"U","NORAD_CAT_ID":59271,"ELEMENT_SET_NO":999,"REV_AT_EPOCH":8539,"BSTAR":3.16395e-5,"MEAN_MOTION_DOT":5.78e-6,"MEAN_MOTION_DDOT":0},{"OBJECT_NAME":"STARLINK-31623","OBJECT_ID":"2024-050U","EPOCH":"2025-09-25T07:32:55.959648","MEAN_MOTION":15.30195426,"ECCENTRICITY":0.00015104,"INCLINATION":53.1594,"RA_OF_ASC_NODE":228.8134,"ARG_OF_PERICENTER":124.6265,"MEAN_ANOMALY":235.4879,"EPHEMERIS_TYPE":0,"CLASSIFICATION_TYPE":"U","NORAD_CAT_ID":59272,"ELEMENT_SET_NO":999,"REV_AT_EPOCH":8523,"BSTAR":-3.1643331e-5,"MEAN_MOTION_DOT":-1.296e-5,"MEAN_MOTION_DDOT":0},{"OBJECT_NAME":"STARLINK-31595","OBJECT_ID":"2024-050V","EPOCH":"2025-09-25T06:39:55.438272","MEAN_MOTION":15.30178951,"ECCENTRICITY":0.00019903,"INCLINATION":53.1594,"RA_OF_ASC_NODE":229.3,"ARG_OF_PERICENTER":101.6722,"MEAN_ANOMALY":258.4502,"EPHEMERIS_TYPE":0,"CLASSIFICATION_TYPE":"U","NORAD_CAT_ID":59273,"ELEMENT_SET_NO":999,"REV_AT_EPOCH":8522,"BSTAR":0.00011079744,"MEAN_MOTION_DOT":2.921e-5,"MEAN_MOTION_DDOT":0},{"OBJECT_NAME":"STARLINK-31463","OBJECT_ID":"2024-056A","EPOCH":"2025-09-24T18:17:59.721792","MEAN_MOTION":15.27576985,"ECCENTRICITY":0.00014895,"INCLINATION":43.001,"RA_OF_ASC_NODE":83.8228,"ARG_OF_PERICENTER":258.4302,"MEAN_ANOMALY":101.6383,"EPHEMERIS_TYPE":0,"CLASSIFICATION_TYPE":"U","NORAD_CAT_ID":59296,"ELEMENT_SET_NO":999,"REV_AT_EPOCH":8582,"BSTAR":6.1326985e-5,"MEAN_MOTION_DOT":1.426e-5,"MEAN_MOTION_DDOT":0},{"OBJECT_NAME":"STARLINK-31487","OBJECT_ID":"2024-056B","EPOCH":"2025-09-24T19:34:59.640384","MEAN_MOTION":15.27596126,"ECCENTRICITY":9.65e-5,"INCLINATION":43.0025,"RA_OF_ASC_NODE":87.6893,"ARG_OF_PERICENTER":272.8352,"MEAN_ANOMALY":87.239,"EPHEMERIS_TYPE":0,"CLASSIFICATION_TYPE":"U","NORAD_CAT_ID":59297,"ELEMENT_SET_NO":999,"REV_AT_EPOCH":8590,"BSTAR":0.00011935569,"MEAN_MOTION_DOT":3.025e-5,"MEAN_MOTION_DDOT":0},{"OBJECT_NAME":"STARLINK-31386","OBJECT_ID":"2024-056C","EPOCH":"2025-09-25T04:34:03.340416","MEAN_MOTION":15.27574342,"ECCENTRICITY":9.77e-5,"INCLINATION":42.9987,"RA_OF_ASC_NODE":85.3361,"ARG_OF_PERICENTER":285.7363,"MEAN_ANOMALY":74.338,"EPHEMERIS_TYPE":0,"CLASSIFICATION_TYPE":"U","NORAD_CAT_ID":59298,"ELEMENT_SET_NO":999,"REV_AT_EPOCH":8584,"BSTAR":-2.5645627e-5,"MEAN_MOTION_DOT":-9.67e-6,"MEAN_MOTION_DDOT":0},{"OBJECT_NAME":"STARLINK-31409","OBJECT_ID":"2024-056D","EPOCH":"2025-09-24T19:14:13.461216","MEAN_MOTION":15.27584078,"ECCENTRICITY":0.00013743,"INCLINATION":43.0023,"RA_OF_ASC_NODE":80.6618,"ARG_OF_PERICENTER":297.2,"MEAN_ANOMALY":62.8712,"EPHEMERIS_TYPE":0,"CLASSIFICATION_TYPE":"U","NORAD_CAT_ID":59299,"ELEMENT_SET_NO":999,"REV_AT_EPOCH":8598,"BSTAR":-0.00014538631,"MEAN_MOTION_DOT":-4.261e-5,"MEAN_MOTION_DDOT":0},{"OBJECT_NAME":"STARLINK-31489","OBJECT_ID":"2024-056E","EPOCH":"2025-09-24T18:46:54.516288","MEAN_MOTION":15.27574663,"ECCENTRICITY":6.86e-5,"INCLINATION":42.995,"RA_OF_ASC_NODE":87.4324,"ARG_OF_PERICENTER":149.3344,"MEAN_ANOMALY":210.7548,"EPHEMERIS_TYPE":0,"CLASSIFICATION_TYPE":"U","NORAD_CAT_ID":59300,"ELEMENT_SET_NO":999,"REV_AT_EPOCH":8578,"BSTAR":-3.864202e-6,"MEAN_MOTION_DOT":-3.68e-6,"MEAN_MOTION_DDOT":0},{"OBJECT_NAME":"STARLINK-31502","OBJECT_ID":"2024-056F","EPOCH":"2025-09-25T00:00:02.000160","MEAN_MOTION":15.27539665,"ECCENTRICITY":0.00014666,"INCLINATION":43.0017,"RA_OF_ASC_NODE":79.1856,"ARG_OF_PERICENTER":272.2796,"MEAN_ANOMALY":242.132,"EPHEMERIS_TYPE":0,"CLASSIFICATION_TYPE":"U","NORAD_CAT_ID":59301,"ELEMENT_SET_NO":999,"REV_AT_EPOCH":588,"BSTAR":0.0024323238,"MEAN_MOTION_DOT":0.00067199,"MEAN_MOTION_DDOT":0},{"OBJECT_NAME":"STARLINK-31447","OBJECT_ID":"2024-056G","EPOCH":"2025-09-24T19:12:49.430304","MEAN_MOTION":15.27568845,"ECCENTRICITY":0.00011661,"INCLINATION":43.0004,"RA_OF_ASC_NODE":87.5736,"ARG_OF_PERICENTER":266.5643,"MEAN_ANOMALY":93.5076,"EPHEMERIS_TYPE":0,"CLASSIFICATION_TYPE":"U","NORAD_CAT_ID":59302,"ELEMENT_SET_NO":999,"REV_AT_EPOCH":8578,"BSTAR":-0.00010309226,"MEAN_MOTION_DOT":-3.097e-5,"MEAN_MOTION_DDOT":0},{"OBJECT_NAME":"STARLINK-31504","OBJECT_ID":"2024-056H","EPOCH":"2025-09-24T19:23:55.229568","MEAN_MOTION":15.27569113,"ECCENTRICITY":0.00012456,"INCLINATION":43.0015,"RA_OF_ASC_NODE":87.626,"ARG_OF_PERICENTER":270.0653,"MEAN_ANOMALY":90.0056,"EPHEMERIS_TYPE":0,"CLASSIFICATION_TYPE":"U","NORAD_CAT_ID":59303,"ELEMENT_SET_NO":999,"REV_AT_EPOCH":8578,"BSTAR":-3.0740786e-5,"MEAN_MOTION_DOT":-1.108e-5,"MEAN_MOTION_DDOT":0},{"OBJECT_NAME":"STARLINK-31474","OBJECT_ID":"2024-056J","EPOCH":"2025-09-24T11:30:50.190912","MEAN_MOTION":15.27577165,"ECCENTRICITY":0.00015889,"INCLINATION":43.0036,"RA_OF_ASC_NODE":82.5388,"ARG_OF_PERICENTER":269.9647,"MEAN_ANOMALY":90.1023,"EPHEMERIS_TYPE":0,"CLASSIFICATION_TYPE":"U","NORAD_CAT_ID":59304,"ELEMENT_SET_NO":999,"REV_AT_EPOCH":8581,"BSTAR":2.1433362e-5,"MEAN_MOTION_DOT":3.28e-6,"MEAN_MOTION_DDOT":0},{"OBJECT_NAME":"STARLINK-31500","OBJECT_ID":"2024-056K","EPOCH":"2025-09-23T19:46:00.526080","MEAN_MOTION":15.2757931,"ECCENTRICITY":8.474e-5,"INCLINATION":43.0036,"RA_OF_ASC_NODE":93.1365,"ARG_OF_PERICENTER":288.3469,"MEAN_ANOMALY":71.729,"EPHEMERIS_TYPE":0,"CLASSIFICATION_TYPE":"U","NORAD_CAT_ID":59305,"ELEMENT_SET_NO":999,"REV_AT_EPOCH":8563,"BSTAR":0.00011968446,"MEAN_MOTION_DOT":3.033e-5,"MEAN_MOTION_DDOT":0},{"OBJECT_NAME":"STARLINK-31480","OBJECT_ID":"2024-056L","EPOCH":"2025-09-23T05:18:14.405184","MEAN_MOTION":15.27586288,"ECCENTRICITY":0.00014946,"INCLINATION":43.001,"RA_OF_ASC_NODE":96.3536,"ARG_OF_PERICENTER":273.7213,"MEAN_ANOMALY":86.3468,"EPHEMERIS_TYPE":0,"CLASSIFICATION_TYPE":"U","NORAD_CAT_ID":59306,"ELEMENT_SET_NO":999,"REV_AT_EPOCH":8554,"BSTAR":5.8549642e-5,"MEAN_MOTION_DOT":1.35e-5,"MEAN_MOTION_DDOT":0}]
