STARLINK-31609          
1 59269U 24050R   25268.16398860 -.00001020  00000+0 -22320-4 0  9993
2 59269  53.1608 229.9970 0001412  99.9432 260.1728 15.30175589 85203
STARLINK-31616          
1 59270U 24050S   25268.30095587 -.00003736  00000+0 -11419-3 0  9993
2 59270  53.1603 229.4271 0001431  83.5583 276.5581 15.30168179 85223
STARLINK-31630          
1 59271U 24050T   25268.24350609  .00000578  00000+0  31640-4 0  9994
2 59271  53.1601 216.9846 0001314  96.9585 263.1565 15.30194161 85393
STARLINK-31623          
1 59272U 24050U   25268.31453657 -.00001296  00000+0 -31643-4 0  9993
2 59272  53.1594 228.8134 0001510 124.6265 235.4879 15.30195426 85237
STARLINK-31595          
1 59273U 24050V   25268.27772498  .00002921  00000+0  11080-3 0  9992
2 59273  53.1594 229.3000 0001990 101.6722 258.4502 15.30178951 85222
STARLINK-31463          
1 59296U 24056A   25267.76249678  .00001426  00000+0  61327-4 0  9994
2 59296  43.0010  83.8228 0001489 258.4302 101.6383 15.27576985 85828
STARLINK-31487          
1 59297U 24056B   25267.81596806  .00003025  00000+0  11936-3 0  9996
2 59297  43.0025  87.6893 0000965 272.8352  87.2390 15.27596126 85903
STARLINK-31386          
1 59298U 24056C   25268.19031644 -.00000967  00000+0 -25646-4 0  9991
2 59298  42.9987  85.3361 0000977 285.7363  74.3380 15.27574342 85847
STARLINK-31409          
1 59299U 24056D   25267.80154469 -.00004261  00000+0 -14539-3 0  9999
2 59299  43.0023  80.6618 0001374 297.2000  62.8712 15.27584078 85985
STARLINK-31489          
1 59300U 24056E   25267.78257542 -.00000368  00000+0 -38642-5 0  9992
2 59300  42.9950  87.4324 0000686 149.3344 210.7548 15.27574663 85785
STARLINK-31502          
1 59301U 24056F   25268.00002315  .00067199  00000+0  24323-2 0  9996
2 59301  43.0017  79.1856 0001466 272.2796 242.1320 15.27539665  5887
STARLINK-31447          
1 59302U 24056G   25267.80057211 -.00003097  00000+0 -10309-3 0  9998
2 59302  43.0004  87.5736 0001166 266.5643  93.5076 15.27568845 85783
STARLINK-31504          
1 59303U 24056H   25267.80827812 -.00001108  00000+0 -30741-4 0  9995
2 59303  43.0015  87.6260 0001245 270.0653  90.0056 15.27569113 85787
STARLINK-31474          
1 59304U 24056J   25267.47974758  .00000328  00000+0  21433-4 0  9990
2 59304  43.0036  82.5388 0001588 269.9647  90.1023 15.27577165 85811
STARLINK-31500          
1 59305U 24056K   25266.82361720  .00003033  00000+0  11968-3 0  9995
2 59305  43.0036  93.1365 0000847 288.3469  71.7290 15.27579310 85634
STARLINK-31480          
1 59306U 24056L   25266.22100006  .00001350  00000+0  58550-4 0  9997
2 59306  43.0010  96.3536 0001494 273.7213  86.3468 15.27586288 85547
